{"fetched_at":"2026-07-10T18:07:53.733Z","source":"https://celestrak.org/NORAD/elements/gp.php?GROUP=planet&FORMAT=JSON","constellation":"skysat","records":[{"OBJECT_NAME":"SKYSAT-A","OBJECT_ID":"2013-066C","EPOCH":"2026-07-09T13:04:14.776608","CLASSIFICATION_TYPE":"U","MEAN_MOTION":15.13096648,"ECCENTRICITY":0.00200258,"INCLINATION":97.3805,"RA_OF_ASC_NODE":239.2292,"ARG_OF_PERICENTER":233.9327,"MEAN_ANOMALY":126.005,"EPHEMERIS_TYPE":0,"NORAD_CAT_ID":39418,"ELEMENT_SET_NO":999,"REV_AT_EPOCH":69186,"BSTAR":0.00012862473,"MEAN_MOTION_DOT":0.00002223,"MEAN_MOTION_DDOT":0},{"OBJECT_NAME":"SKYSAT-B","OBJECT_ID":"2014-037D","EPOCH":"2026-07-09T10:47:30.495264","CLASSIFICATION_TYPE":"U","MEAN_MOTION":14.88083411,"ECCENTRICITY":0.00051123,"INCLINATION":98.385,"RA_OF_ASC_NODE":150.6859,"ARG_OF_PERICENTER":191.8576,"MEAN_ANOMALY":168.252,"EPHEMERIS_TYPE":0,"NORAD_CAT_ID":40072,"ELEMENT_SET_NO":999,"REV_AT_EPOCH":64927,"BSTAR":0.00010518908,"MEAN_MOTION_DOT":0.00000906,"MEAN_MOTION_DDOT":0},{"OBJECT_NAME":"SKYSAT-C1","OBJECT_ID":"2016-040C","EPOCH":"2026-07-09T08:37:19.298496","CLASSIFICATION_TYPE":"U","MEAN_MOTION":15.36681886,"ECCENTRICITY":0.00009197,"INCLINATION":96.9561,"RA_OF_ASC_NODE":220.8806,"ARG_OF_PERICENTER":6.2368,"MEAN_ANOMALY":353.8888,"EPHEMERIS_TYPE":0,"NORAD_CAT_ID":41601,"ELEMENT_SET_NO":999,"REV_AT_EPOCH":56127,"BSTAR":0.00019474005,"MEAN_MOTION_DOT":0.00006902,"MEAN_MOTION_DDOT":0},{"OBJECT_NAME":"SKYSAT-C4","OBJECT_ID":"2016-058B","EPOCH":"2026-07-10T07:56:08.357856","CLASSIFICATION_TYPE":"U","MEAN_MOTION":15.49327873,"ECCENTRICITY":0.0003294,"INCLINATION":96.9171,"RA_OF_ASC_NODE":212.1432,"ARG_OF_PERICENTER":125.0872,"MEAN_ANOMALY":235.069,"EPHEMERIS_TYPE":0,"NORAD_CAT_ID":41771,"ELEMENT_SET_NO":999,"REV_AT_EPOCH":54905,"BSTAR":0.00024128845,"MEAN_MOTION_DOT":0.00013127,"MEAN_MOTION_DDOT":0},{"OBJECT_NAME":"SKYSAT-C5","OBJECT_ID":"2016-058C","EPOCH":"2026-07-09T22:14:08.690208","CLASSIFICATION_TYPE":"U","MEAN_MOTION":15.3395516,"ECCENTRICITY":0.00020348,"INCLINATION":97.0465,"RA_OF_ASC_NODE":230.5527,"ARG_OF_PERICENTER":135.3938,"MEAN_ANOMALY":224.747,"EPHEMERIS_TYPE":0,"NORAD_CAT_ID":41772,"ELEMENT_SET_NO":999,"REV_AT_EPOCH":54723,"BSTAR":0.00022859962,"MEAN_MOTION_DOT":0.00007436,"MEAN_MOTION_DDOT":0},{"OBJECT_NAME":"SKYSAT-C2","OBJECT_ID":"2016-058D","EPOCH":"2026-07-08T23:51:39.410496","CLASSIFICATION_TYPE":"U","MEAN_MOTION":15.42580195,"ECCENTRICITY":0.00022198,"INCLINATION":97.0167,"RA_OF_ASC_NODE":211.2736,"ARG_OF_PERICENTER":17.2519,"MEAN_ANOMALY":342.8804,"EPHEMERIS_TYPE":0,"NORAD_CAT_ID":41773,"ELEMENT_SET_NO":999,"REV_AT_EPOCH":54841,"BSTAR":0.00020101756,"MEAN_MOTION_DOT":0.00008655,"MEAN_MOTION_DDOT":0},{"OBJECT_NAME":"SKYSAT-C3","OBJECT_ID":"2016-058E","EPOCH":"2026-07-10T00:24:41.926752","CLASSIFICATION_TYPE":"U","MEAN_MOTION":15.53540793,"ECCENTRICITY":0.00021894,"INCLINATION":96.9003,"RA_OF_ASC_NODE":220.9981,"ARG_OF_PERICENTER":133.5121,"MEAN_ANOMALY":226.6316,"EPHEMERIS_TYPE":0,"NORAD_CAT_ID":41774,"ELEMENT_SET_NO":999,"REV_AT_EPOCH":54965,"BSTAR":0.000284373,"MEAN_MOTION_DOT":0.00018005,"MEAN_MOTION_DDOT":0},{"OBJECT_NAME":"SKYSAT-C11","OBJECT_ID":"2017-068A","EPOCH":"2026-07-09T15:48:01.789056","CLASSIFICATION_TYPE":"U","MEAN_MOTION":15.59105762,"ECCENTRICITY":0.00008121,"INCLINATION":97.4368,"RA_OF_ASC_NODE":340.4901,"ARG_OF_PERICENTER":166.0165,"MEAN_ANOMALY":194.1114,"EPHEMERIS_TYPE":0,"NORAD_CAT_ID":42987,"ELEMENT_SET_NO":999,"REV_AT_EPOCH":48674,"BSTAR":0.00027644744,"MEAN_MOTION_DOT":0.00021499,"MEAN_MOTION_DDOT":0},{"OBJECT_NAME":"SKYSAT-C10","OBJECT_ID":"2017-068B","EPOCH":"2026-07-09T15:42:35.169408","CLASSIFICATION_TYPE":"U","MEAN_MOTION":15.35042344,"ECCENTRICITY":0.00013609,"INCLINATION":97.4523,"RA_OF_ASC_NODE":327.7297,"ARG_OF_PERICENTER":109.0541,"MEAN_ANOMALY":251.085,"EPHEMERIS_TYPE":0,"NORAD_CAT_ID":42988,"ELEMENT_SET_NO":999,"REV_AT_EPOCH":48580,"BSTAR":0.00023222205,"MEAN_MOTION_DOT":0.00007814,"MEAN_MOTION_DDOT":0},{"OBJECT_NAME":"SKYSAT-C9","OBJECT_ID":"2017-068C","EPOCH":"2026-07-09T15:06:23.132160","CLASSIFICATION_TYPE":"U","MEAN_MOTION":15.42121068,"ECCENTRICITY":0.00090649,"INCLINATION":97.4443,"RA_OF_ASC_NODE":328.8561,"ARG_OF_PERICENTER":62.2816,"MEAN_ANOMALY":297.935,"EPHEMERIS_TYPE":0,"NORAD_CAT_ID":42989,"ELEMENT_SET_NO":999,"REV_AT_EPOCH":48621,"BSTAR":0.0002150963,"MEAN_MOTION_DOT":0.0000913,"MEAN_MOTION_DDOT":0},{"OBJECT_NAME":"SKYSAT-C8","OBJECT_ID":"2017-068D","EPOCH":"2026-07-09T15:45:21.893760","CLASSIFICATION_TYPE":"U","MEAN_MOTION":15.37418486,"ECCENTRICITY":0.00012242,"INCLINATION":97.4543,"RA_OF_ASC_NODE":327.6181,"ARG_OF_PERICENTER":99.9689,"MEAN_ANOMALY":260.1694,"EPHEMERIS_TYPE":0,"NORAD_CAT_ID":42990,"ELEMENT_SET_NO":999,"REV_AT_EPOCH":48576,"BSTAR":0.00020711554,"MEAN_MOTION_DOT":0.00007514,"MEAN_MOTION_DDOT":0},{"OBJECT_NAME":"SKYSAT-C7","OBJECT_ID":"2017-068E","EPOCH":"2026-07-10T04:06:59.264064","CLASSIFICATION_TYPE":"U","MEAN_MOTION":15.37378749,"ECCENTRICITY":0.00061426,"INCLINATION":97.4551,"RA_OF_ASC_NODE":329.1314,"ARG_OF_PERICENTER":37.9429,"MEAN_ANOMALY":322.2247,"EPHEMERIS_TYPE":0,"NORAD_CAT_ID":42991,"ELEMENT_SET_NO":999,"REV_AT_EPOCH":48590,"BSTAR":0.00020467599,"MEAN_MOTION_DOT":0.00007419,"MEAN_MOTION_DDOT":0},{"OBJECT_NAME":"SKYSAT-C6","OBJECT_ID":"2017-068F","EPOCH":"2026-07-09T15:34:22.752480","CLASSIFICATION_TYPE":"U","MEAN_MOTION":15.34106572,"ECCENTRICITY":0.00051627,"INCLINATION":97.4588,"RA_OF_ASC_NODE":328.4799,"ARG_OF_PERICENTER":103.1836,"MEAN_ANOMALY":256.9983,"EPHEMERIS_TYPE":0,"NORAD_CAT_ID":42992,"ELEMENT_SET_NO":999,"REV_AT_EPOCH":48576,"BSTAR":0.00019987016,"MEAN_MOTION_DOT":0.00006518,"MEAN_MOTION_DDOT":0},{"OBJECT_NAME":"SKYSAT-C12","OBJECT_ID":"2018-099AR","EPOCH":"2026-07-10T06:46:08.261184","CLASSIFICATION_TYPE":"U","MEAN_MOTION":15.49671741,"ECCENTRICITY":0.00056819,"INCLINATION":96.9262,"RA_OF_ASC_NODE":213.5994,"ARG_OF_PERICENTER":80.959,"MEAN_ANOMALY":279.2305,"EPHEMERIS_TYPE":0,"NORAD_CAT_ID":43797,"ELEMENT_SET_NO":999,"REV_AT_EPOCH":42543,"BSTAR":0.00024870509,"MEAN_MOTION_DOT":0.00013704,"MEAN_MOTION_DDOT":0}]}
